{
  "links" : {
    "next" : "https://api.nasa.gov/neo/rest/v1/feed?start_date=2011-10-09&end_date=2011-10-09&detailed=true&api_key=t0TVs3DtDT2H8Oy2Zy8m2eVrNsAVKAexjcZXUckd",
    "prev" : "https://api.nasa.gov/neo/rest/v1/feed?start_date=2011-10-07&end_date=2011-10-07&detailed=true&api_key=t0TVs3DtDT2H8Oy2Zy8m2eVrNsAVKAexjcZXUckd",
    "self" : "https://api.nasa.gov/neo/rest/v1/feed?start_date=2011-10-08&end_date=2011-10-08&detailed=true&api_key=t0TVs3DtDT2H8Oy2Zy8m2eVrNsAVKAexjcZXUckd"
  },
  "element_count" : 5,
  "near_earth_objects" : {
    "2011-10-08" : [ {
      "links" : {
        "self" : "https://api.nasa.gov/neo/rest/v1/neo/3092114?api_key=t0TVs3DtDT2H8Oy2Zy8m2eVrNsAVKAexjcZXUckd"
      },
      "neo_reference_id" : "3092114",
      "name" : "(1993 DA)",
      "nasa_jpl_url" : "http://ssd.jpl.nasa.gov/sbdb.cgi?sstr=3092114",
      "absolute_magnitude_h" : 26.4,
      "estimated_diameter" : {
        "kilometers" : {
          "estimated_diameter_min" : 0.0139493823,
          "estimated_diameter_max" : 0.0311917671
        },
        "meters" : {
          "estimated_diameter_min" : 13.9493822934,
          "estimated_diameter_max" : 31.1917670523
        },
        "miles" : {
          "estimated_diameter_min" : 0.0086677416,
          "estimated_diameter_max" : 0.0193816595
        },
        "feet" : {
          "estimated_diameter_min" : 45.7656914036,
          "estimated_diameter_max" : 102.3351970157
        }
      },
      "is_potentially_hazardous_asteroid" : false,
      "close_approach_data" : [ {
        "close_approach_date" : "2011-10-08",
        "epoch_date_close_approach" : 1318057200000,
        "relative_velocity" : {
          "kilometers_per_second" : "7.2705437221",
          "kilometers_per_hour" : "26173.9573995908",
          "miles_per_hour" : "16263.4792519846"
        },
        "miss_distance" : {
          "astronomical" : "0.19510925",
          "lunar" : "75.8974990845",
          "kilometers" : "29187928",
          "miles" : "18136538"
        },
        "orbiting_body" : "Earth"
      } ],
      "orbital_data" : {
        "orbit_id" : "12",
        "orbit_determination_date" : "2017-04-06 09:18:21",
        "orbit_uncertainty" : "6",
        "minimum_orbit_intersection" : ".0355467",
        "jupiter_tisserand_invariant" : "6.384",
        "epoch_osculation" : "2458000.5",
        "eccentricity" : ".09290087273231146",
        "semi_major_axis" : ".9360956173801899",
        "inclination" : "12.38480390588035",
        "ascending_node_longitude" : "329.0534793799209",
        "orbital_period" : "330.8100879954508",
        "perihelion_distance" : ".8491315175646783",
        "perihelion_argument" : "354.0644784903601",
        "aphelion_distance" : "1.023059717195701",
        "perihelion_time" : "2458121.114380891518",
        "mean_anomaly" : "228.7428869413935",
        "mean_motion" : "1.088237671896362",
        "equinox" : "J2000"
      }
    }, {
      "links" : {
        "self" : "https://api.nasa.gov/neo/rest/v1/neo/3468527?api_key=t0TVs3DtDT2H8Oy2Zy8m2eVrNsAVKAexjcZXUckd"
      },
      "neo_reference_id" : "3468527",
      "name" : "(2009 SM104)",
      "nasa_jpl_url" : "http://ssd.jpl.nasa.gov/sbdb.cgi?sstr=3468527",
      "absolute_magnitude_h" : 23.6,
      "estimated_diameter" : {
        "kilometers" : {
          "estimated_diameter_min" : 0.0506471459,
          "estimated_diameter_max" : 0.1132504611
        },
        "meters" : {
          "estimated_diameter_min" : 50.6471458835,
          "estimated_diameter_max" : 113.2504610618
        },
        "miles" : {
          "estimated_diameter_min" : 0.0314706677,
          "estimated_diameter_max" : 0.0703705522
        },
        "feet" : {
          "estimated_diameter_min" : 166.1651821003,
          "estimated_diameter_max" : 371.5566426699
        }
      },
      "is_potentially_hazardous_asteroid" : false,
      "close_approach_data" : [ {
        "close_approach_date" : "2011-10-08",
        "epoch_date_close_approach" : 1318057200000,
        "relative_velocity" : {
          "kilometers_per_second" : "19.3345188163",
          "kilometers_per_hour" : "69604.2677385526",
          "miles_per_hour" : "43249.3851401023"
        },
        "miss_distance" : {
          "astronomical" : "0.281095104",
          "lunar" : "109.3460006714",
          "kilometers" : "42051232",
          "miles" : "26129424"
        },
        "orbiting_body" : "Earth"
      } ],
      "orbital_data" : {
        "orbit_id" : "12",
        "orbit_determination_date" : "2017-04-06 08:59:48",
        "orbit_uncertainty" : "7",
        "minimum_orbit_intersection" : ".0672121",
        "jupiter_tisserand_invariant" : "6.098",
        "epoch_osculation" : "2458000.5",
        "eccentricity" : ".3675326427022826",
        "semi_major_axis" : ".981450655761091",
        "inclination" : "9.676830169742416",
        "ascending_node_longitude" : ".8317866310987827",
        "orbital_period" : "355.141259983995",
        "perihelion_distance" : ".620735502567329",
        "perihelion_argument" : "138.9835264813726",
        "aphelion_distance" : "1.342165808954853",
        "perihelion_time" : "2458039.068982143123",
        "mean_anomaly" : "320.9033499172974",
        "mean_motion" : "1.013681147654384",
        "equinox" : "J2000"
      }
    } ]
  }
}